CCSDS_OMM_VERS = 2.0
CREATION_DATE  = 
ORIGINATOR     = 

OBJECT_NAME    = STARLINK-35729
OBJECT_ID      = 2025-280S
CENTER_NAME    = EARTH
REF_FRAME      = TEME
TIME_SYSTEM    = UTC
MEAN_ELEMENT_THEORY = SGP/SGP4

EPOCH          = 2025-12-13T14:53:06.239904
MEAN_MOTION    = 15.78096509
ECCENTRICITY   = .00054323
INCLINATION    = 69.9923
RA_OF_ASC_NODE = 196.2923
ARG_OF_PERICENTER = 269.6342
MEAN_ANOMALY   = 90.4235

EPHEMERIS_TYPE = 0
CLASSIFICATION_TYPE = U
NORAD_CAT_ID   = 66837
ELEMENT_SET_NO = 999
REV_AT_EPOCH   = 306
BSTAR          = -.96715229E-2
MEAN_MOTION_DOT = -.1464154E-1
MEAN_MOTION_DDOT = 0

CCSDS_OMM_VERS = 2.0
CREATION_DATE  = 
ORIGINATOR     = 

OBJECT_NAME    = STARLINK-35886
OBJECT_ID      = 2025-280T
CENTER_NAME    = EARTH
REF_FRAME      = TEME
TIME_SYSTEM    = UTC
MEAN_ELEMENT_THEORY = SGP/SGP4

EPOCH          = 2025-12-13T14:51:58.667328
MEAN_MOTION    = 15.79861060
ECCENTRICITY   = .00132222
INCLINATION    = 69.9922
RA_OF_ASC_NODE = 196.2893
ARG_OF_PERICENTER = 247.5169
MEAN_ANOMALY   = 112.4632

EPHEMERIS_TYPE = 0
CLASSIFICATION_TYPE = U
NORAD_CAT_ID   = 66838
ELEMENT_SET_NO = 999
REV_AT_EPOCH   = 306
BSTAR          = .68293144E-2
MEAN_MOTION_DOT = .1426816E-1
MEAN_MOTION_DDOT = 0

CCSDS_OMM_VERS = 2.0
CREATION_DATE  = 
ORIGINATOR     = 

OBJECT_NAME    = STARLINK-35717
OBJECT_ID      = 2025-280U
CENTER_NAME    = EARTH
REF_FRAME      = TEME
TIME_SYSTEM    = UTC
MEAN_ELEMENT_THEORY = SGP/SGP4

EPOCH          = 2025-12-13T16:24:52.295904
MEAN_MOTION    = 15.71051241
ECCENTRICITY   = .00234421
INCLINATION    = 69.9919
RA_OF_ASC_NODE = 196.1115
ARG_OF_PERICENTER = 32.7375
MEAN_ANOMALY   = 327.5268

EPHEMERIS_TYPE = 0
CLASSIFICATION_TYPE = U
NORAD_CAT_ID   = 66839
ELEMENT_SET_NO = 999
REV_AT_EPOCH   = 307
BSTAR          = -.74124695E-1
MEAN_MOTION_DOT = -.7624536E-1
MEAN_MOTION_DDOT = 0

CCSDS_OMM_VERS = 2.0
CREATION_DATE  = 
ORIGINATOR     = 

OBJECT_NAME    = STARLINK-35837
OBJECT_ID      = 2025-280V
CENTER_NAME    = EARTH
REF_FRAME      = TEME
TIME_SYSTEM    = UTC
MEAN_ELEMENT_THEORY = SGP/SGP4

EPOCH          = 2025-12-13T14:52:14.427552
MEAN_MOTION    = 15.71978660
ECCENTRICITY   = .00318763
INCLINATION    = 69.9948
RA_OF_ASC_NODE = 196.2866
ARG_OF_PERICENTER = 356.9580
MEAN_ANOMALY   = 3.1417

EPHEMERIS_TYPE = 0
CLASSIFICATION_TYPE = U
NORAD_CAT_ID   = 66840
ELEMENT_SET_NO = 999
REV_AT_EPOCH   = 306
BSTAR          = -.81281382E-1
MEAN_MOTION_DOT = -.8921658E-1
MEAN_MOTION_DDOT = 0

CCSDS_OMM_VERS = 2.0
CREATION_DATE  = 
ORIGINATOR     = 

OBJECT_NAME    = STARLINK-35715
OBJECT_ID      = 2025-280W
CENTER_NAME    = EARTH
REF_FRAME      = TEME
TIME_SYSTEM    = UTC
MEAN_ELEMENT_THEORY = SGP/SGP4

EPOCH          = 2025-12-13T16:22:58.143360
MEAN_MOTION    = 15.77035954
ECCENTRICITY   = .00049355
INCLINATION    = 69.9923
RA_OF_ASC_NODE = 196.1076
ARG_OF_PERICENTER = 283.5605
MEAN_ANOMALY   = 76.5044

EPHEMERIS_TYPE = 0
CLASSIFICATION_TYPE = U
NORAD_CAT_ID   = 66841
ELEMENT_SET_NO = 999
REV_AT_EPOCH   = 307
BSTAR          = -.44798272E-2
MEAN_MOTION_DOT = -.676243E-2
MEAN_MOTION_DDOT = 0

CCSDS_OMM_VERS = 2.0
CREATION_DATE  = 
ORIGINATOR     = 

OBJECT_NAME    = STARLINK-35769
OBJECT_ID      = 2025-280X
CENTER_NAME    = EARTH
REF_FRAME      = TEME
TIME_SYSTEM    = UTC
MEAN_ELEMENT_THEORY = SGP/SGP4

EPOCH          = 2025-12-13T13:19:17.330880
MEAN_MOTION    = 15.79787901
ECCENTRICITY   = .00147843
INCLINATION    = 69.9923
RA_OF_ASC_NODE = 196.4660
ARG_OF_PERICENTER = 252.3352
MEAN_ANOMALY   = 107.6235

EPHEMERIS_TYPE = 0
CLASSIFICATION_TYPE = U
NORAD_CAT_ID   = 66842
ELEMENT_SET_NO = 999
REV_AT_EPOCH   = 305
BSTAR          = .80982653E-2
MEAN_MOTION_DOT = .1689237E-1
MEAN_MOTION_DDOT = 0

CCSDS_OMM_VERS = 2.0
CREATION_DATE  = 
ORIGINATOR     = 

OBJECT_NAME    = STARLINK-35997
OBJECT_ID      = 2025-280Y
CENTER_NAME    = EARTH
REF_FRAME      = TEME
TIME_SYSTEM    = UTC
MEAN_ELEMENT_THEORY = SGP/SGP4

EPOCH          = 2025-12-13T14:49:29.908992
MEAN_MOTION    = 15.79524260
ECCENTRICITY   = .00113096
INCLINATION    = 69.9923
RA_OF_ASC_NODE = 196.2820
ARG_OF_PERICENTER = 259.9091
MEAN_ANOMALY   = 100.0834

EPHEMERIS_TYPE = 0
CLASSIFICATION_TYPE = U
NORAD_CAT_ID   = 66843
ELEMENT_SET_NO = 999
REV_AT_EPOCH   = 306
BSTAR          = .26273983E-2
MEAN_MOTION_DOT = .508734E-2
MEAN_MOTION_DDOT = 0

CCSDS_OMM_VERS = 2.0
CREATION_DATE  = 
ORIGINATOR     = 

OBJECT_NAME    = STARLINK-36073
OBJECT_ID      = 2025-280Z
CENTER_NAME    = EARTH
REF_FRAME      = TEME
TIME_SYSTEM    = UTC
MEAN_ELEMENT_THEORY = SGP/SGP4

EPOCH          = 2025-12-13T16:21:57.390336
MEAN_MOTION    = 15.77045972
ECCENTRICITY   = .00049689
INCLINATION    = 69.9915
RA_OF_ASC_NODE = 196.1047
ARG_OF_PERICENTER = 278.2455
MEAN_ANOMALY   = 81.8180

EPHEMERIS_TYPE = 0
CLASSIFICATION_TYPE = U
NORAD_CAT_ID   = 66844
ELEMENT_SET_NO = 999
REV_AT_EPOCH   = 304
BSTAR          = -.44479124E-2
MEAN_MOTION_DOT = -.672062E-2
MEAN_MOTION_DDOT = 0

CCSDS_OMM_VERS = 2.0
CREATION_DATE  = 
ORIGINATOR     = 

OBJECT_NAME    = STARLINK-36068
OBJECT_ID      = 2025-280AA
CENTER_NAME    = EARTH
REF_FRAME      = TEME
TIME_SYSTEM    = UTC
MEAN_ELEMENT_THEORY = SGP/SGP4

EPOCH          = 2025-12-13T16:19:58.739808
MEAN_MOTION    = 15.77001152
ECCENTRICITY   = .00086645
INCLINATION    = 69.9919
RA_OF_ASC_NODE = 196.0994
ARG_OF_PERICENTER = 297.0346
MEAN_ANOMALY   = 62.9968

EPHEMERIS_TYPE = 0
CLASSIFICATION_TYPE = U
NORAD_CAT_ID   = 66845
ELEMENT_SET_NO = 999
REV_AT_EPOCH   = 307
BSTAR          = -.47274236E-2
MEAN_MOTION_DOT = -.711519E-2
MEAN_MOTION_DDOT = 0

CCSDS_OMM_VERS = 2.0
CREATION_DATE  = 
ORIGINATOR     = 

OBJECT_NAME    = STARLINK-36055
OBJECT_ID      = 2025-280AB
CENTER_NAME    = EARTH
REF_FRAME      = TEME
TIME_SYSTEM    = UTC
MEAN_ELEMENT_THEORY = SGP/SGP4

EPOCH          = 2025-12-13T14:48:59.072832
MEAN_MOTION    = 15.79711793
ECCENTRICITY   = .00147515
INCLINATION    = 69.9914
RA_OF_ASC_NODE = 196.2805
ARG_OF_PERICENTER = 251.4833
MEAN_ANOMALY   = 108.4765

EPHEMERIS_TYPE = 0
CLASSIFICATION_TYPE = U
NORAD_CAT_ID   = 66846
ELEMENT_SET_NO = 999
REV_AT_EPOCH   = 306
BSTAR          = .65323439E-2
MEAN_MOTION_DOT = .1348213E-1
MEAN_MOTION_DDOT = 0

CCSDS_OMM_VERS = 2.0
CREATION_DATE  = 
ORIGINATOR     = 

OBJECT_NAME    = STARLINK-36061
OBJECT_ID      = 2025-280AC
CENTER_NAME    = EARTH
REF_FRAME      = TEME
TIME_SYSTEM    = UTC
MEAN_ELEMENT_THEORY = SGP/SGP4

EPOCH          = 2025-12-13T14:48:32.381280
MEAN_MOTION    = 15.79472264
ECCENTRICITY   = .00115549
INCLINATION    = 69.9916
RA_OF_ASC_NODE = 196.2796
ARG_OF_PERICENTER = 255.5008
MEAN_ANOMALY   = 104.4911

EPHEMERIS_TYPE = 0
CLASSIFICATION_TYPE = U
NORAD_CAT_ID   = 66847
ELEMENT_SET_NO = 999
REV_AT_EPOCH   = 306
BSTAR          = .35100893E-2
MEAN_MOTION_DOT = .692647E-2
MEAN_MOTION_DDOT = 0

CCSDS_OMM_VERS = 2.0
CREATION_DATE  = 
ORIGINATOR     = 

OBJECT_NAME    = STARLINK-36091
OBJECT_ID      = 2025-281A
CENTER_NAME    = EARTH
REF_FRAME      = TEME
TIME_SYSTEM    = UTC
MEAN_ELEMENT_THEORY = SGP/SGP4

EPOCH          = 2025-12-13T15:44:50.767296
MEAN_MOTION    = 15.89072384
ECCENTRICITY   = .00026849
INCLINATION    = 43.0006
RA_OF_ASC_NODE = 116.7167
ARG_OF_PERICENTER = 304.2050
MEAN_ANOMALY   = 55.8570

EPHEMERIS_TYPE = 0
CLASSIFICATION_TYPE = U
NORAD_CAT_ID   = 66848
ELEMENT_SET_NO = 999
REV_AT_EPOCH   = 294
BSTAR          = -.36275773E-3
MEAN_MOTION_DOT = -.106963E-2
MEAN_MOTION_DDOT = 0

