STARLINK-35729          
1 66837U 25280S   25347.62021111 -.01464154  00000+0 -96715-2 0  9998
2 66837  69.9923 196.2923 0005432 269.6342  90.4235 15.78096509  3060
STARLINK-35886          
1 66838U 25280T   25347.61942902  .01426816  00000+0  68293-2 0  9999
2 66838  69.9922 196.2893 0013222 247.5169 112.4632 15.79861060  3063
STARLINK-35717          
1 66839U 25280U   25347.68393861 -.07624536  00000+0 -74125-1 0  9998
2 66839  69.9919 196.1115 0023442  32.7375 327.5268 15.71051241  3073
STARLINK-35837          
1 66840U 25280V   25347.61961143 -.08921658  00000+0 -81281-1 0  9994
2 66840  69.9948 196.2866 0031876 356.9580   3.1417 15.71978660  3065
STARLINK-35715          
1 66841U 25280W   25347.68261740 -.00676243  00000+0 -44798-2 0  9990
2 66841  69.9923 196.1076 0004935 283.5605  76.5044 15.77035954  3077
STARLINK-35769          
1 66842U 25280X   25347.55506170  .01689237  00000+0  80983-2 0  9998
2 66842  69.9923 196.4660 0014784 252.3352 107.6235 15.79787901  3050
STARLINK-35997          
1 66843U 25280Y   25347.61770728  .00508734  00000+0  26274-2 0  9992
2 66843  69.9923 196.2820 0011309 259.9091 100.0834 15.79524260  3060
STARLINK-36073          
1 66844U 25280Z   25347.68191424 -.00672062  00000+0 -44479-2 0  9995
2 66844  69.9915 196.1047 0004968 278.2455  81.8180 15.77045972  3047
STARLINK-36068          
1 66845U 25280AA  25347.68054097 -.00711519  00000+0 -47274-2 0  9997
2 66845  69.9919 196.0994 0008664 297.0346  62.9968 15.77001152  3076
STARLINK-36055          
1 66846U 25280AB  25347.61735038  .01348213  00000+0  65323-2 0  9993
2 66846  69.9914 196.2805 0014751 251.4833 108.4765 15.79711793  3065
STARLINK-36061          
1 66847U 25280AC  25347.61704145  .00692647  00000+0  35101-2 0  9992
2 66847  69.9916 196.2796 0011554 255.5008 104.4911 15.79472264  3060
STARLINK-36091          
1 66848U 25281A   25347.65614314 -.00106963  00000+0 -36276-3 0  9994
2 66848  43.0006 116.7167 0002684 304.2050  55.8570 15.89072384  2942
